{"type": "FeatureCollection", "features": [ {"type": "Feature", "properties": {"norad_id": 53093, "name": "COSMOS 2251 DEB", "group": "cosmos-2251-debris", "lat": -53.78000315474771, "lon": -92.51869540399444, "alt_km": 752.6278465135374, "timestamp": "2025-12-18T15:47:11.624167+00:00", "meta": {"OBJECT_NAME": "COSMOS 2251 DEB", "OBJECT_ID": "1993-036BYP", "EPOCH": "2025-12-18T06:03:32.683968", "MEAN_MOTION": 14.41910014, "ECCENTRICITY": 0.00196114, "INCLINATION": 74.0369, "RA_OF_ASC_NODE": 291.2367, "ARG_OF_PERICENTER": 7.6077, "MEAN_ANOMALY": 352.5373, "EPHEMERIS_TYPE": 0, "CLASSIFICATION_TYPE": "U", "NORAD_CAT_ID": 53093, "ELEMENT_SET_NO": 999, "REV_AT_EPOCH": 17805, "BSTAR": 0.00067046149, "MEAN_MOTION_DOT": 2.175e-05, "MEAN_MOTION_DDOT": 0}, "tle": {"line1": "1 53093U 93036BYP 25352.25246162  .00002175  00000+0  67046-3 0  9996", "line2": "2 53093  74.0369 291.2367 0019611   7.6077 352.5373 14.41910014178050"}}, "geometry": {"type": "Point", "coordinates": [-92.51869540399444, -53.78000315474771]}}]}